ONEWEB-0379             
1 49305U 21090AC  25357.89084130  .00000195  00000+0  49037-3 0  9998
2 49305  87.9004 324.6318 0001906  82.9399 277.1948 13.14501881204538
ONEWEB-0380             
1 49306U 21090AD  25357.97252817  .00000064  00000+0  12793-3 0  9991
2 49306  87.9202 339.8378 0001799  92.6875 267.4464 13.19725830203317
ONEWEB-0381             
1 49307U 21090AE  25357.40257502 -.00000019  00000+0 -79036-4 0  9992
2 49307  87.9214 309.4970 0001950  87.9383 272.1974 13.20770904206622
ONEWEB-0382             
1 49308U 21090AF  25357.92024125  .00000004  00000+0 -22859-4 0  9997
2 49308  87.9214 309.3899 0002069  86.0345 274.1025 13.20769568206681
ONEWEB-0383             
1 49309U 21090AG  25357.96060229 -.00000325  00000+0 -91136-3 0  9997
2 49309  87.9003 324.6028 0001952  83.4089 276.7263 13.14501735204579
ONEWEB-0384             
1 49310U 21090AH  25357.61039409  .00000118  00000+0  25728-3 0  9999
2 49310  87.9227 309.4883 0002297  86.9312 273.2084 13.20800083206658
ONEWEB-0385             
1 49311U 21090AJ  25357.60932613  .00000011  00000+0 -51262-5 0  9995
2 49311  87.9215 309.4562 0001935  83.7309 276.4045 13.20770792206621
ONEWEB-0386             
1 49312U 21090AK  25357.62668893  .00000013  00000+0  12624-5 0  9994
2 49312  87.9218 309.4374 0002048  83.9841 276.1525 13.20770728206646
